$$SOE
2460147.500000000, A.D. 2023-Jul-22 00:00:00.0000, -3.937412961803568E+07, -3.342120795228167E+08, -1.173871229223013E+06,
2460154.500000000, A.D. 2023-Jul-29 00:00:00.0000, -2.735240753778881E+07, -3.305308010678468E+08, 2.123901527305394E+05,
2460161.500000000, A.D. 2023-Aug-05 00:00:00.0000, -1.529444519659561E+07, -3.264096833777892E+08, 1.598356572744235E+06,
2460168.500000000, A.D. 2023-Aug-12 00:00:00.0000, -3.215372136538479E+06, -3.218344293658528E+08, 2.982085842591345E+06,
2460175.500000000, A.D. 2023-Aug-19 00:00:00.0000, 8.868202080196906E+06, -3.167906188738921E+08, 4.361459009859517E+06,
2460182.500000000, A.D. 2023-Aug-26 00:00:00.0000, 2.093806242111797E+07, -3.112637944879633E+08, 5.734166390176237E+06,
2460189.500000000, A.D. 2023-Sep-02 00:00:00.0000, 3.297425772664241E+07, -3.052395673123201E+08, 7.097693188245401E+06,
2460196.500000000, A.D. 2023-Sep-09 00:00:00.0000, 4.495496647662886E+07, -2.987037458604546E+08, 8.449304922081605E+06,
2460203.500000000, A.D. 2023-Sep-16 00:00:00.0000, 5.685636141481002E+07, -2.916424914972407E+08, 9.786032934127003E+06,
2460210.500000000, A.D. 2023-Sep-23 00:00:00.0000, 6.865247654299247E+07, -2.840425037102575E+08, 1.110466037933324E+07,
2460217.500000000, A.D. 2023-Sep-30 00:00:00.0000, 8.031508024765949E+07, -2.758912376581155E+08, 1.240170934372692E+07,
2460224.500000000, A.D. 2023-Oct-07 00:00:00.0000, 9.181355750302073E+07, -2.671771580772176E+08, 1.367342993024746E+07,
2460231.500000000, A.D. 2023-Oct-14 00:00:00.0000, 1.031148088735053E+08, -2.578900360525227E+08, 1.491579177054569E+07,
2460238.500000000, A.D. 2023-Oct-21 00:00:00.0000, 1.141831777821071E+08, -2.480212895658818E+08, 1.612447879946047E+07,
2460245.500000000, A.D. 2023-Oct-28 00:00:00.0000, 1.249804145289512E+08, -2.375643669603957E+08, 1.729488879670753E+07,
2460252.500000000, A.D. 2023-Nov-04 00:00:00.0000, 1.354656874201728E+08, -2.265151738087474E+08, 1.842213912111846E+07,
2460259.500000000, A.D. 2023-Nov-11 00:00:00.0000, 1.455956543897120E+08, -2.148725411504233E+08, 1.950108011012153E+07,
2460266.500000000, A.D. 2023-Nov-18 00:00:00.0000, 1.553246098231325E+08, -2.026387294116270E+08, 2.052631777695387E+07,
2460273.500000000, A.D. 2023-Nov-25 00:00:00.0000, 1.646047218454467E+08, -1.898199583072231E+08, 2.149224750099857E+07,
2460280.500000000, A.D. 2023-Dec-02 00:00:00.0000, 1.733863750613527E+08, -1.764269483478734E+08, 2.239310033128680E+07,
2460287.500000000, A.D. 2023-Dec-09 00:00:00.0000, 1.816186322396590E+08, -1.624754542813272E+08, 2.322300327290560E+07,
2460294.500000000, A.D. 2023-Dec-16 00:00:00.0000, 1.892498253889200E+08, -1.479867650813898E+08, 2.397605446643033E+07,
2460301.500000000, A.D. 2023-Dec-23 00:00:00.0000, 1.962282814144367E+08, -1.329881390210173E+08, 2.464641353818107E+07,
2460308.500000000, A.D. 2023-Dec-30 00:00:00.0000, 2.025031782525691E+08, -1.175131375673880E+08, 2.522840663909020E+07,
2460315.500000000, A.D. 2024-Jan-06 00:00:00.0000, 2.080255171223925E+08, -1.016018226684765E+08, 2.571664425557379E+07,
2460322.500000000, A.D. 2024-Jan-13 00:00:00.0000, 2.127491899034839E+08, -8.530078174634087E+07, 2.610614809473258E+07,
2460329.500000000, A.D. 2024-Jan-20 00:00:00.0000, 2.166321062814983E+08, -6.866294394975378E+07, 2.639248249755801E+07,
2460336.500000000, A.D. 2024-Jan-27 00:00:00.0000, 2.196373301536684E+08, -5.174716222613182E+07, 2.657188461507172E+07,
2460343.500000000, A.D. 2024-Feb-03 00:00:00.0000, 2.217341667507602E+08, -3.461755045473564E+07, 2.664138629946808E+07,
2460350.500000000, A.D. 2024-Feb-10 00:00:00.0000, 2.228991371348462E+08, -1.734258113375883E+07, 2.659892017543771E+07,
2460357.500000000, A.D. 2024-Feb-17 00:00:00.0000, 2.231167768451470E+08, 6.031969189090654E+03, 2.644340262455894E+07,
2460364.500000000, A.D. 2024-Feb-24 00:00:00.0000, 2.223802023306024E+08, 1.735462252921238E+07, 2.617478745325446E+07,
2460371.500000000, A.D. 2024-Mar-02 00:00:00.0000, 2.206914024488803E+08, 3.462897134377590E+07, 2.579408580408441E+07,
2460378.500000000, A.D. 2024-Mar-09 00:00:00.0000, 2.180612315443417E+08, 5.175574502601030E+07, 2.530335024525103E+07,
2460385.500000000, A.D. 2024-Mar-16 00:00:00.0000, 2.145091032034864E+08, 6.866389752065063E+07, 2.470562366008396E+07,
2460392.500000000, A.D. 2024-Mar-23 00:00:00.0000, 2.100624058872584E+08, 8.528596251422673E+07, 2.400485631672662E+07,
2460399.500000000, A.D. 2024-Mar-30 00:00:00.0000, 2.047556794704491E+08, 1.015591743858033E+08, 2.320579687147664E+07,
2460406.500000000, A.D. 2024-Apr-06 00:00:00.0000, 1.986296090731934E+08, 1.174263682707211E+08, 2.231386415017711E+07,
2460413.500000000, A.D. 2024-Apr-13 00:00:00.0000, 1.917299039816000E+08, 1.328366334051426E+08, 2.133500733658256E+07,
2460420.500000000, A.D. 2024-Apr-20 00:00:00.0000, 1.841061261619232E+08, 1.477457156145438E+08, 2.027556270040157E+07,
2460427.500000000, A.D. 2024-Apr-27 00:00:00.0000, 1.758105274234359E+08, 1.621161793982755E+08, 1.914211402498156E+07,
2460434.500000000, A.D. 2024-May-04 00:00:00.0000, 1.668969464095137E+08, 1.759173539854821E+08, 1.794136246441739E+07,
2460441.500000000, A.D. 2024-May-11 00:00:00.0000, 1.574198045822904E+08, 1.891250977773313E+08, 1.668001005224334E+07,
2460448.500000000, A.D. 2024-May-18 00:00:00.0000, 1.474332272257951E+08, 2.017214204610556E+08, 1.536465951491837E+07,
2460455.500000000, A.D. 2024-May-25 00:00:00.0000, 1.369903031472352E+08, 2.136940026743339E+08, 1.400173157780409E+07,
2460462.500000000, A.D. 2024-Jun-01 00:00:00.0000, 1.261424862350747E+08, 2.250356504988452E+08, 1.259739972073753E+07,
2460469.500000000, A.D. 2024-Jun-08 00:00:00.0000, 1.149391339581424E+08, 2.357437174674364E+08, 1.115754140859970E+07,
2460476.500000000, A.D. 2024-Jun-15 00:00:00.0000, 1.034271722396260E+08, 2.458195216248367E+08, 9.687704240470707E+06,
2460483.500000000, A.D. 2024-Jun-22 00:00:00.0000, 9.165087120862725E+07, 2.552677797685094E+08, 8.193085281971335E+06,
2460490.500000000, A.D. 2024-Jun-29 00:00:00.0000, 7.965171352972658E+07, 2.640960721911769E+08, 6.678521552873433E+06,
2460497.500000000, A.D. 2024-Jul-06 00:00:00.0000, 6.746834151855528E+07, 2.723143455003159E+08, 5.148489172051236E+06,
2460504.500000000, A.D. 2024-Jul-13 00:00:00.0000, 5.513656935110677E+07, 2.799344621238984E+08, 3.607109288088277E+06,
2460511.500000000, A.D. 2024-Jul-20 00:00:00.0000, 4.268944414006633E+07, 2.869698000358850E+08, 2.058159352007464E+06,
2460518.500000000, A.D. 2024-Jul-27 00:00:00.0000, 3.015734273248581E+07, 2.934349016131983E+08, 5.050882353044897E+05,
2460525.500000000, A.D. 2024-Aug-03 00:00:00.0000, 1.756809390032015E+07, 2.993451693473935E+08, -1.048966097469434E+06,
2460532.500000000, A.D. 2024-Aug-10 00:00:00.0000, 4.947117336001616E+06, 3.047166053353921E+08, -2.601157381394222E+06,
2460539.500000000, A.D. 2024-Aug-17 00:00:00.0000, -7.682427545367991E+06, 3.095655908130093E+08, -4.148911106752262E+06,
2460546.500000000, A.D. 2024-Aug-24 00:00:00.0000, -2.029948849916397E+07, 3.139087016307897E+08, -5.689904454201147E+06,
2460553.500000000, A.D. 2024-Aug-31 00:00:00.0000, -3.288496715050952E+07, 3.177625554774248E+08, -7.222046582643449E+06,
2460560.500000000, A.D. 2024-Sep-07 00:00:00.0000, -4.542156826948158E+07, 3.211436869714948E+08, -8.743459622507676E+06,
2460567.500000000, A.D. 2024-Sep-14 00:00:00.0000, -5.789365377939154E+07, 3.240684478587667E+08, -1.025246052741662E+07,
2460574.500000000, A.D. 2024-Sep-21 00:00:00.0000, -7.028710504852913E+07, 3.265529292832759E+08, -1.174754371019302E+07,
2460581.500000000, A.D. 2024-Sep-28 00:00:00.0000, -8.258919490618397E+07, 3.286128997907671E+08, -1.322736476334272E+07,
2460588.500000000, A.D. 2024-Oct-05 00:00:00.0000, -9.478846624474263E+07, 3.302637563006132E+08, -1.469072563215181E+07,
2460595.500000000, A.D. 2024-Oct-12 00:00:00.0000, -1.068746177710382E+08, 3.315204886191556E+08, -1.613656096312839E+07,
2460602.500000000, A.D. 2024-Oct-19 00:00:00.0000, -1.188383986086687E+08, 3.323976551282451E+08, -1.756392546319309E+07,
2460609.500000000, A.D. 2024-Oct-26 00:00:00.0000, -1.306715115642892E+08, 3.329093670369218E+08, -1.897198228717394E+07,
2460616.500000000, A.D. 2024-Nov-02 00:00:00.0000, -1.423665244644357E+08, 3.330692795016404E+08, -2.035999243309006E+07,
2460623.500000000, A.D. 2024-Nov-09 00:00:00.0000, -1.539167890527651E+08, 3.328905883237093E+08, -2.172730508963113E+07,
2460630.500000000, A.D. 2024-Nov-16 00:00:00.0000, -1.653163669624850E+08, 3.323860311164479E+08, -2.307334887219745E+07,
2460637.500000000, A.D. 2024-Nov-23 00:00:00.0000, -1.765599622358281E+08, 3.315678919615529E+08, -2.439762388913378E+07,
2460644.500000000, A.D. 2024-Nov-30 00:00:00.0000, -1.876428596967038E+08, 3.304480087339579E+08, -2.569969459501518E+07,
2460651.500000000, A.D. 2024-Dec-07 00:00:00.0000, -1.985608682800284E+08, 3.290377828684508E+08, -2.697918337164344E+07,
2460658.500000000, A.D. 2024-Dec-14 00:00:00.0000, -2.093102695471966E+08, 3.273481922573200E+08, -2.823576461358771E+07,
2460665.500000000, A.D. 2024-Dec-21 00:00:00.0000, -2.198877732682186E+08, 3.253898056004357E+08, -2.946915915114456E+07,
2460672.500000000, A.D. 2024-Dec-28 00:00:00.0000, -2.302904776809687E+08, 3.231727948779300E+08, -3.067912938086338E+07,
2460679.500000000, A.D. 2025-Jan-04 00:00:00.0000, -2.405158314450068E+08, 3.207069480221246E+08, -3.186547509765041E+07,
2460686.500000000, A.D. 2025-Jan-11 00:00:00.0000, -2.505615987580210E+08, 3.180016832124454E+08, -3.302802968155232E+07,
2460693.500000000, A.D. 2025-Jan-18 00:00:00.0000, -2.604258282216684E+08, 3.150660636861083E+08, -3.416665658961375E+07,
2460700.500000000, A.D. 2025-Jan-25 00:00:00.0000, -2.701068249088694E+08, 3.119088124369136E+08, -3.528124617601110E+07,
2460707.500000000, A.D. 2025-Feb-01 00:00:00.0000, -2.796031251655461E+08, 3.085383266504573E+08, -3.637171282571745E+07,
2460714.500000000, A.D. 2025-Feb-08 00:00:00.0000, -2.889134738358308E+08, 3.049626918008912E+08, -3.743799237416233E+07,
$$EOE